CCSDS_OMM_VERS = 2.0
CREATION_DATE  = 
ORIGINATOR     = 

OBJECT_NAME    = STARLINK-36737
OBJECT_ID      = 2026-026V
CENTER_NAME    = EARTH
REF_FRAME      = TEME
TIME_SYSTEM    = UTC
MEAN_ELEMENT_THEORY = SGP/SGP4

EPOCH          = 2026-02-19T16:00:01.999584
MEAN_MOTION    = 16.00027849
ECCENTRICITY   = .000123
INCLINATION    = 97.2725
RA_OF_ASC_NODE = 104.3195
ARG_OF_PERICENTER = 79.9973
MEAN_ANOMALY   = 322.6173

EPHEMERIS_TYPE = 0
CLASSIFICATION_TYPE = U
NORAD_CAT_ID   = 67740
ELEMENT_SET_NO = 999
REV_AT_EPOCH   = 241
BSTAR          = -.3119E-2
MEAN_MOTION_DOT = -.1570754E-1
MEAN_MOTION_DDOT = .75666E-3

CCSDS_OMM_VERS = 2.0
CREATION_DATE  = 
ORIGINATOR     = 

OBJECT_NAME    = STARLINK-36740
OBJECT_ID      = 2026-026W
CENTER_NAME    = EARTH
REF_FRAME      = TEME
TIME_SYSTEM    = UTC
MEAN_ELEMENT_THEORY = SGP/SGP4

EPOCH          = 2026-02-19T16:00:01.999584
MEAN_MOTION    = 16.00746700
ECCENTRICITY   = .0001346
INCLINATION    = 97.2722
RA_OF_ASC_NODE = 104.3250
ARG_OF_PERICENTER = 72.5384
MEAN_ANOMALY   = 341.9346

EPHEMERIS_TYPE = 0
CLASSIFICATION_TYPE = U
NORAD_CAT_ID   = 67741
ELEMENT_SET_NO = 999
REV_AT_EPOCH   = 241
BSTAR          = -.2947E-2
MEAN_MOTION_DOT = -.1546266E-1
MEAN_MOTION_DDOT = .74089E-3

CCSDS_OMM_VERS = 2.0
CREATION_DATE  = 
ORIGINATOR     = 

OBJECT_NAME    = STARLINK-36693
OBJECT_ID      = 2026-026X
CENTER_NAME    = EARTH
REF_FRAME      = TEME
TIME_SYSTEM    = UTC
MEAN_ELEMENT_THEORY = SGP/SGP4

EPOCH          = 2026-02-19T16:00:01.999584
MEAN_MOTION    = 16.00193794
ECCENTRICITY   = .0001329
INCLINATION    = 97.2725
RA_OF_ASC_NODE = 104.3211
ARG_OF_PERICENTER = 74.7139
MEAN_ANOMALY   = 330.6748

EPHEMERIS_TYPE = 0
CLASSIFICATION_TYPE = U
NORAD_CAT_ID   = 67742
ELEMENT_SET_NO = 999
REV_AT_EPOCH   = 255
BSTAR          = -.30802E-2
MEAN_MOTION_DOT = -.1565943E-1
MEAN_MOTION_DDOT = .75377E-3

CCSDS_OMM_VERS = 2.0
CREATION_DATE  = 
ORIGINATOR     = 

OBJECT_NAME    = STARLINK-36717
OBJECT_ID      = 2026-026Y
CENTER_NAME    = EARTH
REF_FRAME      = TEME
TIME_SYSTEM    = UTC
MEAN_ELEMENT_THEORY = SGP/SGP4

EPOCH          = 2026-02-19T16:00:01.999584
MEAN_MOTION    = 16.00580359
ECCENTRICITY   = .0001306
INCLINATION    = 97.2717
RA_OF_ASC_NODE = 104.3236
ARG_OF_PERICENTER = 77.3564
MEAN_ANOMALY   = 334.4150

EPHEMERIS_TYPE = 0
CLASSIFICATION_TYPE = U
NORAD_CAT_ID   = 67743
ELEMENT_SET_NO = 999
REV_AT_EPOCH   = 255
BSTAR          = -.29789E-2
MEAN_MOTION_DOT = -.1548207E-1
MEAN_MOTION_DDOT = .74121E-3

CCSDS_OMM_VERS = 2.0
CREATION_DATE  = 
ORIGINATOR     = 

OBJECT_NAME    = STARLINK-36692
OBJECT_ID      = 2026-026Z
CENTER_NAME    = EARTH
REF_FRAME      = TEME
TIME_SYSTEM    = UTC
MEAN_ELEMENT_THEORY = SGP/SGP4

EPOCH          = 2026-02-19T16:00:01.999584
MEAN_MOTION    = 16.00403759
ECCENTRICITY   = .0001332
INCLINATION    = 97.2722
RA_OF_ASC_NODE = 104.3223
ARG_OF_PERICENTER = 71.7939
MEAN_ANOMALY   = 336.9936

EPHEMERIS_TYPE = 0
CLASSIFICATION_TYPE = U
NORAD_CAT_ID   = 67744
ELEMENT_SET_NO = 999
REV_AT_EPOCH   = 241
BSTAR          = -.30298E-2
MEAN_MOTION_DOT = -.1558814E-1
MEAN_MOTION_DDOT = .74918E-3

CCSDS_OMM_VERS = 2.0
CREATION_DATE  = 
ORIGINATOR     = 

OBJECT_NAME    = 2026-027A
OBJECT_ID      = 2026-027A
CENTER_NAME    = EARTH
REF_FRAME      = TEME
TIME_SYSTEM    = UTC
MEAN_ELEMENT_THEORY = SGP/SGP4

EPOCH          = 2026-02-20T19:45:15.571296
MEAN_MOTION    = 15.17353686
ECCENTRICITY   = .0009246
INCLINATION    = 97.4887
RA_OF_ASC_NODE = 181.0207
ARG_OF_PERICENTER = 257.1035
MEAN_ANOMALY   = 102.9166

EPHEMERIS_TYPE = 0
CLASSIFICATION_TYPE = U
NORAD_CAT_ID   = 67746
ELEMENT_SET_NO = 999
REV_AT_EPOCH   = 130
BSTAR          = .38372E-3
MEAN_MOTION_DOT = .7602E-4
MEAN_MOTION_DDOT = 0

CCSDS_OMM_VERS = 2.0
CREATION_DATE  = 
ORIGINATOR     = 

OBJECT_NAME    = 2026-027B
OBJECT_ID      = 2026-027B
CENTER_NAME    = EARTH
REF_FRAME      = TEME
TIME_SYSTEM    = UTC
MEAN_ELEMENT_THEORY = SGP/SGP4

EPOCH          = 2026-02-20T19:44:26.244672
MEAN_MOTION    = 15.17455116
ECCENTRICITY   = .000939
INCLINATION    = 97.4881
RA_OF_ASC_NODE = 181.0208
ARG_OF_PERICENTER = 259.6816
MEAN_ANOMALY   = 100.3359

EPHEMERIS_TYPE = 0
CLASSIFICATION_TYPE = U
NORAD_CAT_ID   = 67747
ELEMENT_SET_NO = 999
REV_AT_EPOCH   = 130
BSTAR          = .3836E-3
MEAN_MOTION_DOT = .7621E-4
MEAN_MOTION_DDOT = 0

CCSDS_OMM_VERS = 2.0
CREATION_DATE  = 
ORIGINATOR     = 

OBJECT_NAME    = 2026-027C
OBJECT_ID      = 2026-027C
CENTER_NAME    = EARTH
REF_FRAME      = TEME
TIME_SYSTEM    = UTC
MEAN_ELEMENT_THEORY = SGP/SGP4

EPOCH          = 2026-02-20T19:43:21.931968
MEAN_MOTION    = 15.17566041
ECCENTRICITY   = .0009793
INCLINATION    = 97.4892
RA_OF_ASC_NODE = 181.0233
ARG_OF_PERICENTER = 262.8161
MEAN_ANOMALY   = 97.1959

EPHEMERIS_TYPE = 0
CLASSIFICATION_TYPE = U
NORAD_CAT_ID   = 67748
ELEMENT_SET_NO = 999
REV_AT_EPOCH   = 130
BSTAR          = .27461E-3
MEAN_MOTION_DOT = .5453E-4
MEAN_MOTION_DDOT = 0

CCSDS_OMM_VERS = 2.0
CREATION_DATE  = 
ORIGINATOR     = 

OBJECT_NAME    = 2026-027D
OBJECT_ID      = 2026-027D
CENTER_NAME    = EARTH
REF_FRAME      = TEME
TIME_SYSTEM    = UTC
MEAN_ELEMENT_THEORY = SGP/SGP4

EPOCH          = 2026-02-20T19:42:04.670496
MEAN_MOTION    = 15.17757147
ECCENTRICITY   = .0009602
INCLINATION    = 97.4889
RA_OF_ASC_NODE = 181.0240
ARG_OF_PERICENTER = 267.4137
MEAN_ANOMALY   = 92.5998

EPHEMERIS_TYPE = 0
CLASSIFICATION_TYPE = U
NORAD_CAT_ID   = 67749
ELEMENT_SET_NO = 999
REV_AT_EPOCH   = 125
BSTAR          = .43077E-3
MEAN_MOTION_DOT = .8643E-4
MEAN_MOTION_DDOT = 0

CCSDS_OMM_VERS = 2.0
CREATION_DATE  = 
ORIGINATOR     = 

OBJECT_NAME    = 2026-027E
OBJECT_ID      = 2026-027E
CENTER_NAME    = EARTH
REF_FRAME      = TEME
TIME_SYSTEM    = UTC
MEAN_ELEMENT_THEORY = SGP/SGP4

EPOCH          = 2026-02-20T19:41:59.328384
MEAN_MOTION    = 15.17758958
ECCENTRICITY   = .0008725
INCLINATION    = 97.4899
RA_OF_ASC_NODE = 181.0255
ARG_OF_PERICENTER = 268.9890
MEAN_ANOMALY   = 91.0344

EPHEMERIS_TYPE = 0
CLASSIFICATION_TYPE = U
NORAD_CAT_ID   = 67750
ELEMENT_SET_NO = 999
REV_AT_EPOCH   = 130
BSTAR          = .38012E-3
MEAN_MOTION_DOT = .7617E-4
MEAN_MOTION_DDOT = 0

CCSDS_OMM_VERS = 2.0
CREATION_DATE  = 
ORIGINATOR     = 

OBJECT_NAME    = 2026-027F
OBJECT_ID      = 2026-027F
CENTER_NAME    = EARTH
REF_FRAME      = TEME
TIME_SYSTEM    = UTC
MEAN_ELEMENT_THEORY = SGP/SGP4

EPOCH          = 2026-02-20T19:41:24.797760
MEAN_MOTION    = 15.17875429
ECCENTRICITY   = .0009885
INCLINATION    = 97.4900
RA_OF_ASC_NODE = 181.0263
ARG_OF_PERICENTER = 268.2608
MEAN_ANOMALY   = 91.7494

EPHEMERIS_TYPE = 0
CLASSIFICATION_TYPE = U
NORAD_CAT_ID   = 67751
ELEMENT_SET_NO = 999
REV_AT_EPOCH   = 130
BSTAR          = .61461E-3
MEAN_MOTION_DOT = .1241E-3
MEAN_MOTION_DDOT = 0

CCSDS_OMM_VERS = 2.0
CREATION_DATE  = 
ORIGINATOR     = 

OBJECT_NAME    = 2026-027G
OBJECT_ID      = 2026-027G
CENTER_NAME    = EARTH
REF_FRAME      = TEME
TIME_SYSTEM    = UTC
MEAN_ELEMENT_THEORY = SGP/SGP4

EPOCH          = 2026-02-20T19:41:18.093984
MEAN_MOTION    = 15.17848940
ECCENTRICITY   = .0009064
INCLINATION    = 97.4894
RA_OF_ASC_NODE = 181.0254
ARG_OF_PERICENTER = 271.1218
MEAN_ANOMALY   = 88.8977

EPHEMERIS_TYPE = 0
CLASSIFICATION_TYPE = U
NORAD_CAT_ID   = 67752
ELEMENT_SET_NO = 999
REV_AT_EPOCH   = 130
BSTAR          = .41181E-3
MEAN_MOTION_DOT = .828E-4
MEAN_MOTION_DDOT = 0

