STARLINK-36737          
1 67740U 26026V   26050.66668981 -.01570754  75666-3 -31190-2 0  9993
2 67740  97.2725 104.3195 0001230  79.9973 322.6173 16.00027849  2419
STARLINK-36740          
1 67741U 26026W   26050.66668981 -.01546266  74089-3 -29470-2 0  9991
2 67741  97.2722 104.3250 0001346  72.5384 341.9346 16.00746700  2412
STARLINK-36693          
1 67742U 26026X   26050.66668981 -.01565943  75377-3 -30802-2 0  9997
2 67742  97.2725 104.3211 0001329  74.7139 330.6748 16.00193794  2551
STARLINK-36717          
1 67743U 26026Y   26050.66668981 -.01548207  74121-3 -29789-2 0  9990
2 67743  97.2717 104.3236 0001306  77.3564 334.4150 16.00580359  2552
STARLINK-36692          
1 67744U 26026Z   26050.66668981 -.01558814  74918-3 -30298-2 0  9997
2 67744  97.2722 104.3223 0001332  71.7939 336.9936 16.00403759  2410
2026-027A               
1 67746U 26027A   26051.82309689  .00007602  00000+0  38372-3 0  9996
2 67746  97.4887 181.0207 0009246 257.1035 102.9166 15.17353686  1302
2026-027B               
1 67747U 26027B   26051.82252598  .00007621  00000+0  38360-3 0  9991
2 67747  97.4881 181.0208 0009390 259.6816 100.3359 15.17455116  1309
2026-027C               
1 67748U 26027C   26051.82178162  .00005453  00000+0  27461-3 0  9997
2 67748  97.4892 181.0233 0009793 262.8161  97.1959 15.17566041  1305
2026-027D               
1 67749U 26027D   26051.82088739  .00008643  00000+0  43077-3 0  9993
2 67749  97.4889 181.0240 0009602 267.4137  92.5998 15.17757147  1258
2026-027E               
1 67750U 26027E   26051.82082556  .00007617  00000+0  38012-3 0  9999
2 67750  97.4899 181.0255 0008725 268.9890  91.0344 15.17758958  1300
2026-027F               
1 67751U 26027F   26051.82042590  .00012410  00000+0  61461-3 0  9995
2 67751  97.4900 181.0263 0009885 268.2608  91.7494 15.17875429  1307
2026-027G               
1 67752U 26027G   26051.82034831  .00008280  00000+0  41181-3 0  9992
2 67752  97.4894 181.0254 0009064 271.1218  88.8977 15.17848940  1300
